#dP2024  8 13  0  0  0.00000000      96 __u+U IGS20 FIT  IAC
## 2327 172800.00000000   900.00000000 60535 0.0000000000000
+  131   C01C02C03C04C05C06C07C08C09C10C11C12C13C14C16C19C20
+        C21C22C23C24C25C26C27C28C29C30C32C33C34C35C36C37C38
+        C39C40C41C42C43C44C45C59C60C62E02E03E04E05E06E07E08
+        E09E10E11E12E13E14E15E18E19E21E24E25E26E27E29E30E31
+        E33E34E36G01G02G03G04G05G06G07G08G09G10G11G12G13G14
+        G15G16G17G18G19G20G21G22G23G24G25G26G27G28G29G30G31
+        G32J02J03J04J07R01R02R03R04R05R06R07R08R09R11R12R14
+        R15R16R17R18R19R20R21R22R23R24R25R26  0  0  0  0  0
++        17 17 17 17 17  9 11 10 10 10  9  9  9  9  9  7  7
++         7  7  8  8  8  7  7  7  7  7  7  8  7  7  7  8  9
++         9  9  8  8  8  7  7  0 17  0  4  5  5  5  6  4  4
++         5  5  5  5  4  5  4  5  5  4  5  5  5  4  4  4  5
++         5  4  5  6  4  4  4  4  4  4  4  4  4  4  4  5  4
++         5  4  4  4  4  4  4  4  4  4  4  4  4  4  4  4  4
++         4 11 11 12 18  8  6  6  6  6 15  6  6  6  6  7  6
++         6  6  6  6  7  8  6  6 16  6  8  9  0  0  0  0  0
%c M  cc GPS ccc cccc cccc cccc cccc ccccc ccccc ccccc ccccc
%c cc cc ccc ccc cccc cccc cccc cccc ccccc ccccc ccccc ccccc
%f  0.0000000  0.000000000  0.00000000000  0.000000000000000
%f  0.0000000  0.000000000  0.00000000000  0.000000000000000
%i    0    0    0    0      0      0      0      0         0
%i    0    0    0    0      0      0      0      0         0
/* INFORMATION & ANALYSIS CENTER (IAC)            RAPID DATA
/* S/V CLOCKS ARE ALIGNED TO GNSS TIME                      
/* G:C1WC2W R:C1PC2P E:C1XC5X C:C2IC6I J:C1CC2S             
/* PCV:IGS20_2317 OL/AL:FES2004  NONE     YN ORB:CoN CLK:CoN
*  2024 08 13 17 15  0.00000000
PC01 -34344.154836  24444.581183  -1116.087079    914.752141
PC02   4462.756090  41907.240888  -1415.025682    929.910735
PC03 -14739.563520  39491.811267  -1122.769645    725.451760
PC04 -39656.882335  14345.883465  -1095.213065   -719.648971
PC05  21865.340677  36027.061796   -785.459301   -456.975146
PC06 -17367.976598  36401.305115  11871.965813    678.694829
PC07  -3364.857381  34812.277907  23834.882640   -464.183294
PC08  -9615.833684  19048.553049 -36413.959320   -421.304925
PC09  -9186.285669  34828.765503  21868.274713   -175.168611
PC10   3091.438217  37718.003401  19544.440963   -124.657727
PC11  15668.351920 -17066.798750 -15474.058265    710.948144
PC12  15057.110211   3688.894410 -23165.582297   -265.922310
PC13  -1704.783915  21444.010059 -36119.367774    437.638441
PC14  15391.326247  -6222.716153  22442.224161    -76.110159
PC16 -18746.433064  36186.064418  10357.428381   -726.666724
PC19  -7431.111505  14171.401252 -22851.907453   -925.458296
PC20 -19936.991773  -1091.164013 -19482.026206   -797.875942
PC21  21557.492055  17325.925275   3837.421381   -943.631642
PC22  10118.336526  22340.403550 -13354.097843     91.216591
PC23     31.452193 -16790.288126 -22278.417853   -814.079557
PC24  27174.942678  -4950.808130   3871.139793    857.258873
PC25  19015.479918 -15785.336240 -12948.772022    477.633664
PC26  19278.940745   7936.196073  18518.558220   -333.781151
PC27 -11925.617201 -13592.089898  21235.300571    354.350592
PC28  -1508.633366 -25566.487940  11078.861753    273.672273
PC29 -11409.920183  23921.321336   8742.113428    321.335980
PC30 -16776.388458   6262.304502  21390.477507   -164.442081
PC32 -21639.177938 -17212.446337  -3699.897378   -701.275164
PC33   7498.343797 -14126.813448  22859.325361   -966.606131
PC34  16795.171429  -8175.016860 -20749.335955    498.360826
PC35   2182.117988  25697.835965 -10636.451594    288.174848
PC36 -19089.789019  15491.359045  13243.419368    159.773364
PC37 -19160.303147  -8328.782946 -18498.226342   -909.111468
PC38 -19759.638555  19110.404060 -31979.025642    173.070654
PC39 -21518.109972  36003.371924   2723.471833     -9.526016
PC40  -6807.594219  31366.081798  27529.585150    -85.438717
PC41  -9342.083526 -22196.768853  14127.669297   -925.780908
PC42  20805.859141   2724.580256  18447.195480   -462.831832
PC43  11963.562670 -23330.077969  -9587.355655     82.203561
PC44  12540.288821  13278.534472 -21108.438267    562.184707
PC45   -668.146168  16777.784886  22296.006011   -116.640785
PC59      0.000000      0.000000      0.000000 999999.999999
PC60   7275.033176  41500.931310  -1761.078222     -0.244730
PC62      0.000000      0.000000      0.000000 999999.999999
PE02  -6059.106991  15726.595405  24336.272877    151.051665
PE03  -3342.288271  26687.766108 -12384.326084   -133.422993
PE04 -10158.757925 -27025.756520  -6507.371249     -7.339125
PE05 -14530.270185  10635.630778 -23494.010311   4774.794624
PE06 -14954.018311 -20726.281371 -14949.244616    -14.983925
PE07  17258.363001  12112.092635  20782.335530   -136.384589
PE08   9612.258029  27417.296058   5701.769530   -318.592885
PE09 -17123.481231 -12199.550639 -20830.760122   -551.294606
PE10 -13000.669629  -9711.380514  24746.825862   -648.199063
PE11 -20460.606442   -392.187622  21370.765208   2054.486751
PE12  -4528.727129 -16687.781784  24018.126227  -1165.259152
PE13  20098.239753    860.928211 -21713.835592    -23.804091
PE14  -5976.763009 -22857.039980   1544.615333    164.608235
PE15   3896.625050  17018.232540 -23902.023901   -120.703844
PE18  12766.393482  28576.395434  -8605.834162    428.426412
PE19   4731.674697 -25639.423088  14015.930038    451.090258
PE21  23643.372943  -4572.323757 -17208.180713   -610.882538
PE24 -27906.109870  -9887.844529   -463.352954   -928.569782
PE25 -23911.952706   4275.050019  16926.275610      7.955415
PE26  24189.805089 -15825.449703  -6347.928514    540.654188
PE27  27966.371271   9686.292837    287.075325   -425.417568
PE29  14536.302269 -11102.689859  23267.639334    -22.583644
PE30  15669.811800  18131.476650  17366.472613   -607.974700
PE31 -15766.247209 -18042.810536 -17367.280485    -32.429555
PE33  14699.311401 -22903.998402  11623.564869     14.577359
PE34 -14294.641158  22968.941350 -12038.346144   -128.256379
PE36 -24262.975972  15489.980212   6894.595418   -268.624969
PG01 -25568.954856  -7827.343282   -443.968099    221.951556
PG02 -13455.611993  21826.989152  -5779.014726   -379.683377
PG03  -4110.783234  14169.418655 -22251.320113    498.559480
PG04  -2051.617093  24229.140330 -10502.878048    423.442944
PG05  20016.641786  -6672.188813  15993.574185   -183.082592
PG06  17087.729296   2025.193572 -20201.226275    100.664450
PG07   2390.588361  17721.013461  20021.220776    -52.426430
PG08  -9052.210557  16233.857833  18696.133156    314.160169
PG09   7259.037921  25516.357503    -67.767286    312.723099
PG10 -23744.505167 -10796.732315   6083.129501    -92.967226
PG11  22153.167933 -10221.575492 -10395.002785   -720.886236
PG12   8337.219647 -13174.311138 -21776.899956   -530.070229
PG13  13670.670706  -7683.252648  21178.160774    670.577634
PG14  21298.675237  13272.629447   9076.490677    471.596741
PG15   6778.303178 -17708.332128  18016.616182    192.191026
PG16 -23018.611960   1298.752334  13233.652210   -209.588201
PG17  13120.755036  18244.423336 -13606.841448    655.533130
PG18  -2063.808180 -16996.846810  20259.682742   -645.820932
PG19  15159.662405  10335.061877 -19512.805477    524.073543
PG20  25496.579469  -2480.800778   6772.318114    371.720988
PG21 -16535.328986  20024.753167   -392.032959    103.582790
PG22  24278.978925  10296.763178   1566.899129    -50.842447
PG23 -14778.958370 -14960.555869  16378.069356    296.480172
PG24  13741.448284 -22039.868717  -4807.051622   -486.112574
PG25  -4825.580321 -16496.239614 -20650.223501    499.261969
PG26 -26399.831920  -4267.627187    959.028508    101.210496
PG27 -14347.242083   4639.538572  21564.141483    -32.960052
PG28 -16023.858358  -4194.701312 -20773.999420   -371.097686
PG29  -2440.463979 -26178.233829  -3277.186598   -584.273736
PG30  12220.465630  10151.612135  21445.592369   -340.612513
PG31 -21714.106891   6440.450673 -14404.891615   -225.894874
PG32 -14939.295063 -16354.472486 -14589.603488   -606.031816
PJ02 -28651.912421  20891.369366  27985.498084     -0.768191
PJ03 -33981.743019  24897.573319   8113.338528     -1.840579
PJ04 -19844.436675  24745.512322 -22777.426231     22.560320
PJ07 -25352.546969  33701.323241    -42.628197 999999.999999
PR01    810.761318  16360.194243 -19562.652672     94.398528
PR02  11928.091960  21725.603977  -5842.944725    -24.117660
PR03  17263.928040  14830.330317  11498.695863    105.570048
PR04  12752.757082    403.242126  22109.112798    249.773848
PR05   1674.744609 -14488.057107  20940.695909    136.033888
PR06 -13477.253622 -21173.830873   4591.351851   -175.987017
PR07 -17256.067396 -14528.663657 -11924.057577     88.725222
PR08 -12736.156175    -74.669622 -22052.064894     -6.338229
PR09  -6864.087867 -10245.202968 -22293.758439    203.199014
PR11 -25015.763280   4104.248145   2753.322135     14.968099
PR12 -12900.481192  10668.840739  19280.308049     43.594192
PR14  21845.316575   3714.050465  12674.666962     26.815510
PR15  24686.337667  -4704.785209  -4378.175936     76.888999
PR16  13111.958483 -10542.256662 -19172.082338     28.222891
PR17   9466.006723   4827.288474 -23183.183539    113.139002
PR18  14338.740104 -11675.777009 -17576.915516    156.846336
PR19  13293.720415 -21229.099034  -4787.891315   -287.439631
PR20   2486.677170 -20037.934076  15613.281958   -117.611446
PR21  -9114.891944  -5359.123964  23210.554428   -125.685187
PR22 -14991.390922  12183.299121  16680.685350     70.150860
PR23 -11769.048881  22569.981054   1706.215080   -129.688131
PR24   -943.103315  19979.093750 -15832.301679    -67.688551
PR25  -9764.284499  -4911.056825  23051.908672   -100.281037
PR26 -13441.577231  -1326.794095 -21617.363892      9.449576
EOF
